[{"OBJECT_NAME":"CS1","OBJECT_ID":"2021-088B","EPOCH":"2026-03-09T18:02:30.253920","MEAN_MOTION":15.31848439,"ECCENTRICITY":0.00141292,"INCLINATION":97.3882,"RA_OF_ASC_NODE":132.1684,"ARG_OF_PERICENTER":78.0335,"MEAN_ANOMALY":282.249,"EPHEMERIS_TYPE":0,"CLASSIFICATION_TYPE":"U","NORAD_CAT_ID":49261,"ELEMENT_SET_NO":999,"REV_AT_EPOCH":24518,"BSTAR":0.00051175576,"MEAN_MOTION_DOT":0.00015722,"MEAN_MOTION_DDOT":0},{"OBJECT_NAME":"STARLINK-30481","OBJECT_ID":"2023-146J","EPOCH":"2026-03-09T22:00:01.999584","MEAN_MOTION":15.08687801,"ECCENTRICITY":0.00016647,"INCLINATION":42.9998,"RA_OF_ASC_NODE":311.9974,"ARG_OF_PERICENTER":260.7497,"MEAN_ANOMALY":28.8747,"EPHEMERIS_TYPE":0,"CLASSIFICATION_TYPE":"U","NORAD_CAT_ID":57899,"ELEMENT_SET_NO":999,"REV_AT_EPOCH":577,"BSTAR":0.09858141,"MEAN_MOTION_DOT":0.01723889,"MEAN_MOTION_DDOT":0}]
